H1 CPF  1  HTS 2022  3 26 12  5851 larets           NONE
H2  0304206 5557    27944 2022 03 26  0  0  0 2022 03 31  0  0  0   180 1 1  0 0 0
H5  0.0560 
H9 
10 0 59665  10440.00000  0    2070739.803   -1433832.436    6591388.766
10 0 59665  10620.00000  0     764434.054   -1203809.644    6908264.799
10 0 59665  10800.00000  0    -562569.818    -895483.449    6972318.797
10 0 59665  10980.00000  0   -1860139.232    -520150.334    6781042.411
10 0 59665  11160.00000  0   -3079479.703     -92853.516    6341220.137
10 0 59665  11340.00000  0   -4174976.930     368208.972    5668726.337
10 0 59665  11520.00000  0   -5105936.940     842441.862    4788002.808
10 0 59665  11700.00000  0   -5838157.047    1307750.425    3731215.331
10 0 59665  11880.00000  0   -6345256.558    1741544.211    2537104.925
10 0 59665  12060.00000  0   -6609704.005    2121801.146    1249567.996
10 0 59665  12240.00000  0   -6623488.183    2428140.036     -83990.247
10 0 59665  12420.00000  0   -6388384.303    2642843.353   -1414464.435
10 0 59665  12600.00000  0   -5915797.345    2751771.766   -2692930.514
10 0 59665  12780.00000  0   -5226192.247    2745123.443   -3872512.814
10 0 59665  12960.00000  0   -4348143.282    2617993.746   -4910143.825
10 0 59665  13140.00000  0   -3317069.269    2370711.364   -5768135.308
10 0 59665  13320.00000  0   -2173733.335    2008943.478   -6415504.516
10 0 59665  13500.00000  0    -962584.315    1543571.591   -6829026.716
10 0 59665  13680.00000  0     269988.211     990346.700   -6993988.164
10 0 59665  13860.00000  0    1477411.790     369345.017   -6904641.091
10 0 59665  14040.00000  0    2614657.828    -295757.849   -6564368.029
10 0 59665  14220.00000  0    3639886.452    -978575.231   -5985546.935
10 0 59665  14400.00000  0    4515959.857   -1651030.575   -5189126.441
10 0 59665  14580.00000  0    5211784.168   -2284484.311   -4203920.962
10 0 59665  14760.00000  0    5703436.087   -2850930.773   -3065627.773
10 0 59665  14940.00000  0    5975026.374   -3324214.544   -1815583.623
10 0 59665  15120.00000  0    6019257.151   -3681212.931    -499291.622
10 0 59665  15300.00000  0    5837640.355   -3902928.095     835231.105
10 0 59665  15480.00000  0    5440359.633   -3975433.176    2139224.263
10 0 59665  15660.00000  0    4845772.546   -3890617.375    3365000.829
10 0 59665  15840.00000  0    4079577.848   -3646686.695    4467719.837
10 0 59665  16020.00000  0    3173697.825   -3248401.294    5407043.808
10 0 59665  16200.00000  0    2164925.958   -2707035.828    6148614.899
10 0 59665  16380.00000  0    1093411.529   -2040065.241    6665293.992
10 0 59665  16560.00000  0       1048.267   -1270595.193    6938127.502
10 0 59665  16740.00000  0   -1070166.371    -426557.943    6957020.450
10 0 59665  16920.00000  0   -2079742.210     460299.439    6721104.137
10 0 59665  17100.00000  0   -2990227.948    1355603.045    6238792.008
10 0 59665  17280.00000  0   -3768615.153    2223680.003    5527518.028
10 0 59665  17460.00000  0   -4387569.266    3028984.564    4613157.355
10 0 59665  17640.00000  0   -4826440.758    3737572.799    3529128.761
10 0 59665  17820.00000  0   -5072008.065    4318560.757    2315195.552
10 0 59665  18000.00000  0   -5118913.246    4745502.046    1016001.363
10 0 59665  18180.00000  0   -4969762.341    4997610.337    -320612.023
10 0 59665  18360.00000  0   -4634881.601    5060754.461   -1645430.662
10 0 59665  18540.00000  0   -4131736.022    4928174.711   -2909758.105
10 0 59665  18720.00000  0   -3484041.267    4600873.373   -4067270.703
10 0 59665  18900.00000  0   -2720626.299    4087664.605   -5075746.444
10 0 59665  19080.00000  0   -1874119.211    3404897.326   -5898591.341
10 0 59665  19260.00000  0    -979529.890    2575878.583   -6506121.890
10 0 59665  19440.00000  0     -72791.072    1630023.394   -6876567.960
10 0 59665  19620.00000  0     810675.234     601778.718   -6996774.354
10 0 59665  19800.00000  0    1637316.338    -470634.788   -6862606.234
10 0 59665  19980.00000  0    2376694.628   -1546626.916   -6479055.011
10 0 59665  20160.00000  0    3002580.687   -2584742.558   -5860050.359
10 0 59665  20340.00000  0    3493870.442   -3544227.041   -5027990.645
10 0 59665  20520.00000  0    3835300.228   -4386613.761   -4012986.065
10 0 59665  20700.00000  0    4017926.679   -5077265.092   -2851824.329
10 0 59665  20880.00000  0    4039360.599   -5586813.424   -1586689.300
10 0 59665  21060.00000  0    3903735.383   -5892437.520    -263652.973
10 0 59665  21240.00000  0    3621403.047   -5978901.477    1069005.677
10 0 59665  21420.00000  0    3208368.771   -5839300.043    2362586.269
10 0 59665  21600.00000  0    2685489.424   -5475464.046    3569781.963
10 0 59665  21780.00000  0    2077475.627   -4898005.074    4646435.746
10 0 59665  21960.00000  0    1411754.998   -4126002.449    5553168.433
10 0 59665  22140.00000  0     717251.690   -3186346.248    6256816.808
10 0 59665  22320.00000  0      23137.135   -2112767.571    6731626.822
10 0 59665  22500.00000  0    -642387.003    -944607.545    6960165.598
10 0 59665  22680.00000  0   -1253226.301     274628.164    6933944.413
10 0 59665  22860.00000  0   -1786415.130    1498888.023    6653735.303
10 0 59665  23040.00000  0   -2222987.024    2681310.957    6129570.004
10 0 59665  23220.00000  0   -2548664.489    3776025.688    5380420.320
10 0 59665  23400.00000  0   -2754344.676    4739955.341    4433561.536
10 0 59665  23580.00000  0   -2836363.199    5534562.557    3323622.650
10 0 59665  23760.00000  0   -2796518.274    6127456.964    2091337.249
10 0 59665  23940.00000  0   -2641850.191    6493781.939     782034.963
10 0 59665  24120.00000  0   -2384183.791    6617309.398    -556068.481
10 0 59665  24300.00000  0   -2039455.975    6491180.960   -1873714.202
10 0 59665  24480.00000  0   -1626860.564    6118242.039   -3122495.805
10 0 59665  24660.00000  0   -1167857.467    5510945.587   -4256694.414
10 0 59665  24840.00000  0    -685112.797    4690860.007   -5234971.385
10 0 59665  25020.00000  0    -201423.916    3687814.732   -6021858.613
10 0 59665  25200.00000  0     261320.615    2538733.659   -6588998.025
10 0 59665  25380.00000  0     683096.984    1286214.034   -6916091.515
10 0 59665  25560.00000  0    1046578.988     -23076.607   -6991551.262
10 0 59665  25740.00000  0    1337822.281   -1340131.941   -6812850.909
10 0 59665  25920.00000  0    1546778.941   -2615409.847   -6386575.981
10 0 59665  26100.00000  0    1667632.552   -3800652.931   -5728188.303
10 0 59665  26280.00000  0    1698945.920   -4850690.026   -4861507.184
10 0 59665  26460.00000  0    1643616.117   -5725154.361   -3817900.649
10 0 59665  26640.00000  0    1508638.190   -6390057.534   -2635209.664
10 0 59665  26820.00000  0    1304683.004   -6819157.417   -1356420.579
10 0 59665  27000.00000  0    1045508.215   -6995049.527     -28122.381
10 0 59665  27180.00000  0     747225.324   -6909921.775    1301197.152
10 0 59665  27360.00000  0     427460.082   -6565927.521    2582946.511
10 0 59665  27540.00000  0     104448.010   -5975150.841    3770243.805
10 0 59665  27720.00000  0    -203890.451   -5159158.515    4819659.241
10 0 59665  27900.00000  0    -480845.571   -4148174.693    5692811.595
10 0 59665  28080.00000  0    -711738.354   -2979918.932    6357765.244
10 0 59665  28260.00000  0    -884628.122   -1698159.737    6790175.847
10 0 59665  28440.00000  0    -990878.221    -351057.154    6974151.353
10 0 59665  28620.00000  0   -1025559.801    1010648.557    6902823.327
10 0 59665  28800.00000  0    -987675.961    2335546.821    6578608.004
10 0 59665  28980.00000  0    -880195.166    3573500.156    6013149.621
10 0 59665  29160.00000  0    -709895.028    4677559.189    5226943.889
10 0 59665  29340.00000  0    -487019.735    5605784.696    4248643.028
10 0 59665  29520.00000  0    -224762.504    6322906.905    3114048.865
10 0 59665  29700.00000  0      61405.180    6801747.133    1864821.620
10 0 59665  29880.00000  0     354530.905    7024335.390     546927.407
10 0 59665  30060.00000  0     637068.452    6982639.097    -791106.227
10 0 59665  30240.00000  0     891802.233    6678871.037   -2100047.070
10 0 59665  30420.00000  0    1102753.535    6125354.930   -3331839.208
10 0 59665  30600.00000  0    1256023.593    5343965.945   -4441417.560
10 0 59665  30780.00000  0    1340532.641    4365180.252   -5388376.556
10 0 59665  30960.00000  0    1348616.861    3226793.289   -6138421.034
10 0 59665  31140.00000  0    1276456.108    1972383.617   -6664554.081
10 0 59665  31320.00000  0    1124317.857     649598.570   -6947972.618
10 0 59665  31500.00000  0     896613.539    -691662.967   -6978665.455
10 0 59665  31680.00000  0     601766.069   -2001112.643   -6755710.094
10 0 59665  31860.00000  0     251896.498   -3229915.999   -6287272.907
10 0 59665  32040.00000  0    -137660.487   -4332475.388   -5590327.299
10 0 59665  32220.00000  0    -548998.473   -5268104.531   -4690080.267
10 0 59665  32400.00000  0    -962416.985   -6002538.374   -3619119.528
10 0 59665  32580.00000  0   -1357310.038   -6509225.002   -2416290.781
10 0 59665  32760.00000  0   -1713128.114   -6770340.905   -1125330.279
10 0 59665  32940.00000  0   -2010369.989   -6777478.848     206710.525
10 0 59665  33120.00000  0   -2231555.481   -6531962.098    1531191.753
10 0 59665  33300.00000  0   -2362129.697   -6044761.963    2799690.130
10 0 59665  33480.00000  0   -2391248.575   -5336018.084    3965803.864
10 0 59665  33660.00000  0   -2312402.891   -4434186.256    4986874.328
10 0 59665  33840.00000  0   -2123852.654   -3374863.666    5825553.563
10 0 59665  34020.00000  0   -1828851.567   -2199346.828    6451161.424
10 0 59665  34200.00000  0   -1435648.097    -952994.967    6840783.349
10 0 59665  34380.00000  0    -957269.123     316532.732    6980085.445
10 0 59665  34560.00000  0    -411095.963    1561100.806    6863825.941
10 0 59665  34740.00000  0     181760.911    2733921.079    6496061.231
99
